*******************************************************************************
JPL/HORIZONS                  ATLAS (C/2025 N1)            2025-Sep-28 12:41:22
Rec #:90004916 (+COV) Soln.date: 2025-Sep-08_18:29:13     # obs: 603 (104 days)
 
IAU76/J2000 helio. ecliptic osc. elements (au, days, deg., period=Julian yrs):
 
  EPOCH=  2460878.5 ! 2025-Jul-22.0000000 (TDB)    RMSW= n.a.
   EC= 6.139587836355706   QR= 1.356419039495192   TP= 2460977.9814392594
   OM= 322.1568699043938   W= 128.0099421020839    IN= 175.1131015287974
   A= -.26391591751781     MA= -3.18224798181177   ADIST= 9.999999E99
   PER= 9.999999E99        N= 7.269519353          ANGMOM= .053532183
   DAN= -3.48262           DDN= 2.02568            L= 194.0456433
   B= 3.8486331            MOID= .36415401         TP= 2025-Oct-29.4814392594
 
Comet physical (GM= km^3/s^2; RAD= km):
   GM= n.a.                RAD= n.a.
   M1=  12.3     M2=  n.a.     k1=  4.5    k2= n.a.     PHCOF= n.a.
COMET comments 
1: soln ref.= JPL#26, data arc: 2025-05-15 to 2025-08-27
2: k1=4.5;
*******************************************************************************


*******************************************************************************
Ephemeris / WWW_USER Sun Sep 28 12:41:22 2025 Pasadena, USA      / Horizons    
*******************************************************************************
Target body name: ATLAS (C/2025 N1)               {source: JPL#26}
Center body name: Earth (399)                     {source: DE441}
Center-site name: Cerro Paranal
*******************************************************************************
Start time      : A.D. 2025-Sep-23 22:00:00.0000 UT      
Stop  time      : A.D. 2025-Sep-24 04:00:00.0000 UT      
Step-size       : 1 minutes
*******************************************************************************
Target pole/equ : undefined
Target radii    : undefined                                                    
Center geodetic : 289.5957, -24.6272128, 2.63514  {E-lon(deg),Lat(deg),Alt(km)}
Center cylindric: 289.5957,5803.73915,-2642.69127 {E-lon(deg),Dxy(km),Dz(km)}
Center pole/equ : ITRF93                          {East-longitude positive}
Center radii    : 6378.137, 6378.137, 6356.752 km {Equator_a, b, pole_c}       
Target primary  : Sun
Vis. interferer : MOON (R_eq= 1737.400) km        {source: DE441}
Rel. light bend : Sun                             {source: DE441}
Rel. lght bnd GM: 1.3271E+11 km^3/s^2                                          
Small-body perts: Yes                             {source: SB441-N16}
Atmos refraction: NO (AIRLESS)
RA format       : HMS
Time format     : BOTH
Calendar mode   : Mixed Julian/Gregorian
RTS-only print  : NO       
EOP file        : eop.250926.p251223                                           
EOP coverage    : DATA-BASED 1962-JAN-20 TO 2025-SEP-26. PREDICTS-> 2025-DEC-22
Units conversion: 1 au= 149597870.700 km, c= 299792.458 km/s, 1 day= 86400.0 s 
Table cut-offs 1: Elevation ( 20.0deg=YES),Airmass (< 2.800=YES),Daylight (NO )
Table cut-offs 2: Solar elongation (  0.0,180.0=NO ),Local Hour Angle( 0.0=NO )
Table cut-offs 3: RA/DEC angular rate (     0.0=NO )                           
Table format    : Comma Separated Values (spreadsheet)
*******************************************************************************
Initial IAU76/J2000 heliocentric ecliptic osculating elements (au, days, deg.):
  EPOCH=  2460878.5 ! 2025-Jul-22.0000000 (TDB)    RMSW= n.a.                  
   EC= 6.139587836355706   QR= 1.356419039495192   TP= 2460977.9814392594      
   OM= 322.1568699043938   W= 128.0099421020839    IN= 175.1131015287974       
  Equivalent ICRF heliocentric cartesian coordinates (au, au/d):
   X=-1.616994368572366E-02  Y=-3.597814381333365E+00  Z=-1.278571631651561E+00
  VX=-1.386152884723053E-02 VY= 3.077166736535444E-02 VZ= 1.171310239604216E-02
Comet physical (GM= km^3/s^2; RAD= km):                                        
   GM= n.a.                RAD= n.a.                                           
   M1=  12.3     M2=  n.a.     k1=  4.5    k2= n.a.     PHCOF= n.a.            
************************************************************************************************************************************************************************************
 Date__(UT)__HR:MN:SS, Date_________JDUT, , , R.A._____(ICRF), DEC______(ICRF),  dRA*cosD, d(DEC)/dt,    T-mag,  N-mag,                r,       rdot,             delta,     deldot,
************************************************************************************************************************************************************************************
$$SOE
 2025-Sep-23 22:29:00, 2460942.436805556,*,m, 14 39 21.889705, -11 45 30.77885,  -74.0702,  18.11734,   15.537,   n.a.,   1.875249438739,-43.1788790,  2.52175675869826, -4.2308369,
 2025-Sep-23 22:30:00, 2460942.437500000,*,m, 14 39 21.805674, -11 45 30.47492,  -74.0672,  18.11785,   15.537,   n.a.,   1.875232120600,-43.1784576,  2.52175506189145, -4.2297941,
 2025-Sep-23 22:31:00, 2460942.438194444,*,m, 14 39 21.721647, -11 45 30.17098,  -74.0641,  18.11836,   15.537,   n.a.,   1.875214802631,-43.1780363,  2.52175336550168, -4.2287575,
 2025-Sep-23 22:32:00, 2460942.438888889,*,m, 14 39 21.637623, -11 45 29.86703,  -74.0610,  18.11886,   15.537,   n.a.,   1.875197484831,-43.1776149,  2.52175166952651, -4.2277269,
 2025-Sep-23 22:33:00, 2460942.439583333,*,m, 14 39 21.553603, -11 45 29.56307,  -74.0579,  18.11937,   15.537,   n.a.,   1.875180167200,-43.1771935,  2.52174997396346, -4.2267025,
 2025-Sep-23 22:34:00, 2460942.440277778,*,m, 14 39 21.469586, -11 45 29.25910,  -74.0547,  18.11987,   15.537,   n.a.,   1.875162849738,-43.1767721,  2.52174827881008, -4.2256843,
 2025-Sep-23 22:35:00, 2460942.440972222,*,m, 14 39 21.385573, -11 45 28.95513,  -74.0516,  18.12037,   15.537,   n.a.,   1.875145532445,-43.1763507,  2.52174658406387, -4.2246722,
 2025-Sep-23 22:36:00, 2460942.441666667,*,m, 14 39 21.301564, -11 45 28.65114,  -74.0485,  18.12087,   15.537,   n.a.,   1.875128215321,-43.1759293,  2.52174488972237, -4.2236664,
 2025-Sep-23 22:37:00, 2460942.442361111,*,m, 14 39 21.217558, -11 45 28.34715,  -74.0453,  18.12136,   15.537,   n.a.,   1.875110898366,-43.1755078,  2.52174319578306, -4.2226668,
 2025-Sep-23 22:38:00, 2460942.443055556,*,m, 14 39 21.133555, -11 45 28.04315,  -74.0422,  18.12185,   15.537,   n.a.,   1.875093581580,-43.1750864,  2.52174150224346, -4.2216734,
 2025-Sep-23 22:39:00, 2460942.443750000,*,m, 14 39 21.049557, -11 45 27.73915,  -74.0390,  18.12234,   15.537,   n.a.,   1.875076264964,-43.1746649,  2.52173980910104, -4.2206863,
 2025-Sep-23 22:40:00, 2460942.444444444,*,m, 14 39 20.965562, -11 45 27.43513,  -74.0358,  18.12283,   15.537,   n.a.,   1.875058948516,-43.1742434,  2.52173811635328, -4.2197056,
 2025-Sep-23 22:41:00, 2460942.445138889,*,m, 14 39 20.881570, -11 45 27.13111,  -74.0326,  18.12331,   15.537,   n.a.,   1.875041632238,-43.1738219,  2.52173642399765, -4.2187311,
 2025-Sep-23 22:42:00, 2460942.445833333,*,m, 14 39 20.797582, -11 45 26.82708,  -74.0294,  18.12379,   15.537,   n.a.,   1.875024316128,-43.1734004,  2.52173473203162, -4.2177630,
 2025-Sep-23 22:43:00, 2460942.446527778,*,m, 14 39 20.713598, -11 45 26.52304,  -74.0262,  18.12427,   15.537,   n.a.,   1.875007000188,-43.1729789,  2.52173304045264, -4.2168012,
 2025-Sep-23 22:44:00, 2460942.447222222,*,m, 14 39 20.629618, -11 45 26.21899,  -74.0230,  18.12475,   15.537,   n.a.,   1.874989684417,-43.1725574,  2.52173134925814, -4.2158458,
 2025-Sep-23 22:45:00, 2460942.447916667,*,m, 14 39 20.545641, -11 45 25.91493,  -74.0198,  18.12522,   15.537,   n.a.,   1.874972368815,-43.1721359,  2.52172965844558, -4.2148968,
 2025-Sep-23 22:46:00, 2460942.448611111,C,m, 14 39 20.461668, -11 45 25.61087,  -74.0165,  18.12569,   15.537,   n.a.,   1.874955053382,-43.1717143,  2.52172796801237, -4.2139543,
 2025-Sep-23 22:47:00, 2460942.449305556,C,m, 14 39 20.377699, -11 45 25.30680,  -74.0133,  18.12616,   15.537,   n.a.,   1.874937738119,-43.1712927,  2.52172627795594, -4.2130182,
 2025-Sep-23 22:48:00, 2460942.450000000,C,m, 14 39 20.293733, -11 45 25.00272,  -74.0100,  18.12662,   15.537,   n.a.,   1.874920423024,-43.1708712,  2.52172458827369, -4.2120885,
 2025-Sep-23 22:49:00, 2460942.450694445,C,m, 14 39 20.209771, -11 45 24.69864,  -74.0068,  18.12709,   15.537,   n.a.,   1.874903108099,-43.1704496,  2.52172289896304, -4.2111654,
 2025-Sep-23 22:50:00, 2460942.451388889,C,m, 14 39 20.125813, -11 45 24.39454,  -74.0035,  18.12755,   15.537,   n.a.,   1.874885793343,-43.1700280,  2.52172121002137, -4.2102487,
 2025-Sep-23 22:51:00, 2460942.452083333,C,m, 14 39 20.041859, -11 45 24.09044,  -74.0002,  18.12800,   15.537,   n.a.,   1.874868478755,-43.1696063,  2.52171952144607, -4.2093386,
 2025-Sep-23 22:52:00, 2460942.452777778,C,m, 14 39 19.957908, -11 45 23.78634,  -73.9969,  18.12846,   15.537,   n.a.,   1.874851164337,-43.1691847,  2.52171783323452, -4.2084350,
 2025-Sep-23 22:53:00, 2460942.453472222,C,m, 14 39 19.873961, -11 45 23.48222,  -73.9936,  18.12891,   15.537,   n.a.,   1.874833850089,-43.1687631,  2.52171614538409, -4.2075379,
 2025-Sep-23 22:54:00, 2460942.454166667,C,m, 14 39 19.790018, -11 45 23.17810,  -73.9903,  18.12936,   15.537,   n.a.,   1.874816536009,-43.1683414,  2.52171445789215, -4.2066475,
 2025-Sep-23 22:55:00, 2460942.454861111,C,m, 14 39 19.706079, -11 45 22.87397,  -73.9870,  18.12981,   15.537,   n.a.,   1.874799222099,-43.1679197,  2.52171277075605, -4.2057637,
 2025-Sep-23 22:56:00, 2460942.455555555,C,m, 14 39 19.622143, -11 45 22.56983,  -73.9836,  18.13025,   15.537,   n.a.,   1.874781908357,-43.1674981,  2.52171108397314, -4.2048864,
 2025-Sep-23 22:57:00, 2460942.456250000,C,m, 14 39 19.538211, -11 45 22.26568,  -73.9803,  18.13069,   15.537,   n.a.,   1.874764594785,-43.1670764,  2.52170939754075, -4.2040159,
